NORAD_CAT_ID,OBJECT_NAME,OBJECT_TYPE,EPOCH,MEAN_MOTION,ECCENTRICITY,INCLINATION,RA_OF_ASC_NODE,ARG_OF_PERICENTER,MEAN_ANOMALY,BSTAR,MEAN_MOTION_DOT,MEAN_MOTION_DDOT,TLE_LINE0,TLE_LINE1,TLE_LINE2,SEMIMAJOR_AXIS,PERIOD,APOGEE,PERIGEE,DECAYED
49459.0,STARLINK-3141,PAYLOAD,2021-12-23 04:00:01,15.73252756,0.000244,53.2184,296.8375,26.0512,256.9887,-0.00030642,-0.00043508,0.0,0 STARLINK-3141,1 49459U 21104BD  21357.16668981 -.00043508  00000-0 -30642-3 0  9992,2 49459  53.2184 296.8375 0002440  26.0512 256.9887 15.73252756  7513,6727.745,91.53,351.251,347.968,0.0
49459.0,STARLINK-3141,PAYLOAD,2021-12-23 14:00:01,15.73192346,0.0002156,53.2184,294.7743,18.7215,105.4723,5.0602e-05,6.484e-05,0.0,0 STARLINK-3141,1 49459U 21104BD  21357.58334491  .00006484  00000-0  50602-4 0  9993,2 49459  53.2184 294.7743 0002156  18.7215 105.4723 15.73192346  3680,6727.917,91.534,351.233,348.331,0.0
49459.0,STARLINK-3141,PAYLOAD,2021-12-23 20:00:01,15.73192277,0.0002087,53.2183,293.5369,21.3657,79.509,0.00039932,0.00055778,0.0,0 STARLINK-3141,1 49459U 21104BD  21357.83334491  .00055778  00000-0  39932-3 0  9993,2 49459  53.2183 293.5369 0002087  21.3657  79.5090 15.73192277  7611,6727.917,91.534,351.186,348.37800000000016,0.0
49459.0,STARLINK-3141,PAYLOAD,2021-12-23 22:00:00,15.73232341,0.0002086,53.2182,293.1251,20.2301,192.8682,-0.00015986,-0.00023028,0.0,0 STARLINK-3141,1 49459U 21104BD  21357.91667824 -.00023028  00000-0 -15986-3 0  9999,2 49459  53.2182 293.1251 0002086  20.2301 192.8682 15.73232341  3696,6727.803000000001,91.531,351.071,348.265,0.0
49459.0,STARLINK-3141,PAYLOAD,2021-12-24 04:00:00,15.73206042,0.0002255,53.2175,291.8784,15.6139,173.9874,-2.0505e-05,-3.499e-05,0.0,0 STARLINK-3141,1 49459U 21104BD  21358.16667824 -.00003499  00000-0 -20505-4 0  9991,2 49459  53.2175 291.8784 0002255  15.6139 173.9874 15.73206042  7673,6727.878000000002,91.533,351.26,348.226,0.0
49459.0,STARLINK-3141,PAYLOAD,2021-12-24 12:00:00,15.73219481,0.0002148,53.2173,290.2390000000001,16.1958,262.5498,-5.4247e-05,-8.234e-05,0.0,0 STARLINK-3141,1 49459U 21104BD  21358.50001157 -.00008234  00000-0 -54247-4 0  9992,2 49459  53.2173 290.2390 0002148  16.1958 262.5498 15.73219481  7727,6727.84,91.532,351.15,348.259,0.0
49459.0,STARLINK-3141,PAYLOAD,2021-12-24 14:00:01,15.73217145,0.000208,53.2174,289.8261,17.0784,13.9025,-4.0342e-05,-6.284e-05,0.0,0 STARLINK-3141,1 49459U 21104BD  21358.58334491 -.00006284  00000-0 -40342-4 0  9994,2 49459  53.2174 289.8261 0002080  17.0784  13.9025 15.73217145  3669,6727.846,91.532,351.111,348.31199999999984,0.0
49459.0,STARLINK-3141,PAYLOAD,2021-12-24 22:00:00,15.73215869,0.0002104,53.2176,288.1768,22.5553,97.3732,-0.00033032,-0.00046758,0.0,0 STARLINK-3141,1 49459U 21104BD  21358.91667824 -.00046758  00000-0 -33032-3 0  9997,2 49459  53.2176 288.1768 0002104  22.5553  97.3732 15.73215869  3681,6727.85,91.532,351.13,348.2990000000001,0.0
49459.0,STARLINK-3141,PAYLOAD,2021-12-25 12:00:00,15.73178014,0.0002166,53.2175,285.2906,18.0488,167.4605,0.00010196,0.00013699,0.0,0 STARLINK-3141,1 49459U 21104BD  21359.50001157  .00013699  00000-0  10196-3 0  9996,2 49459  53.2175 285.2906 0002166  18.0488 167.4605 15.73178014  7881,6727.958000000001,91.534,351.28,348.366,0.0
49459.0,STARLINK-3141,PAYLOAD,2021-12-25 14:00:01,15.73160458,0.0002099,53.2175,284.8779,19.2313,278.5093,0.00046571,0.00065139,0.0,0 STARLINK-3141,1 49459U 21104BD  21359.58334491  .00065139  00000-0  46571-3 0  9996,2 49459  53.2175 284.8779 0002099  19.2313 278.5093 15.73160458  3692,6728.0080000000025,91.535,351.285,348.461,0.0
49459.0,STARLINK-3141,PAYLOAD,2021-12-25 22:00:00,15.73218374,0.0002147,53.2173,283.2288,21.7503,4.8778,4.9427e-05,6.326e-05,0.0,0 STARLINK-3141,1 49459U 21104BD  21359.91667824  .00006326  00000-0  49427-4 0  9999,2 49459  53.2173 283.2288 0002147  21.7503   4.8778 15.73218374  3692,6727.843000000003,91.532,351.152,348.26300000000015,0.0
49459.0,STARLINK-3141,PAYLOAD,2021-12-26 06:00:02,15.73241938,0.0002386,53.2167,281.5809,22.9961,92.6618,-3.7125e-05,-5.839e-05,0.0,0 STARLINK-3141,1 49459U 21104BD  21360.25002315 -.00005839  00000-0 -37125-4 0  9998,2 49459  53.2167 281.5809 0002386  22.9961  92.6618 15.73241938  7998,6727.776,91.531,351.246,348.035,0.0
49459.0,STARLINK-3141,PAYLOAD,2021-12-26 14:00:01,15.73179851,0.0002172,53.2166,279.9292,28.0597,176.5168,0.00047444,0.00066438,0.0,0 STARLINK-3141,1 49459U 21104BD  21360.58334491  .00066438  00000-0  47444-3 0  9991,2 49459  53.2166 279.9292 0002172  28.0597 176.5168 15.73179851  3665,6727.953,91.534,351.279,348.356,0.0
49459.0,STARLINK-3141,PAYLOAD,2021-12-26 20:00:01,15.73253605,0.0002089,53.2169,278.6922,30.8459,150.4144,-0.00031982,-0.00045372,0.0,0 STARLINK-3141,1 49459U 21104BD  21360.83334491 -.00045372  00000-0 -31982-3 0  9995,2 49459  53.2169 278.6922 0002089  30.8459 150.4144 15.73253605  8096,6727.7419999999975,91.53,351.01300000000015,348.202,0.0
49459.0,STARLINK-3141,PAYLOAD,2021-12-26 22:00:00,15.73272086,0.0002129,53.2168,278.2803,27.6959,265.8034,-0.00073844,-0.00103323,0.0,0 STARLINK-3141,1 49459U 21104BD  21360.91667824 -.00103323  00000-0 -73844-3 0  9997,2 49459  53.2168 278.2803 0002129  27.6959 265.8034 15.73272086  3697,6727.69,91.529,350.987,348.122,0.0
49459.0,STARLINK-3141,PAYLOAD,2021-12-27 14:00:01,15.73145572,0.0001997,53.2169,274.9806,18.7416,92.6392,0.00056583,0.00079361,0.0,0 STARLINK-3141,1 49459U 21104BD  21361.58334491  .00079361  00000-0  56583-3 0  9995,2 49459  53.2169 274.9806 0001997  18.7416  92.6392 15.73145572  3686,6728.05,91.536,351.259,348.57199999999995,0.0
49459.0,STARLINK-3141,PAYLOAD,2021-12-27 20:00:01,15.73195088,0.0002057,53.217,273.7438,23.3094,64.719,0.00015072,0.0002058,0.0,0 STARLINK-3141,1 49459U 21104BD  21361.83334491  .00020580  00000-0  15072-3 0  9990,2 49459  53.2170 273.7438 0002057  23.3094  64.7190 15.73195088  8248,6727.909000000002,91.533,351.158,348.39,0.0
49459.0,STARLINK-3141,PAYLOAD,2021-12-27 22:00:00,15.73208821,0.0002128,53.2169,273.332,23.0022,177.2549,-3.9671e-05,-6.187e-05,0.0,0 STARLINK-3141,1 49459U 21104BD  21361.91667824 -.00006187  00000-0 -39671-4 0  9999,2 49459  53.2169 273.3320 0002128  23.0022 177.2549 15.73208821  3680,6727.87,91.533,351.167,348.30300000000005,0.0
49459.0,STARLINK-3141,PAYLOAD,2021-12-28 12:00:00,15.731767800000002,0.0002192,53.2164,270.4448,30.0949,235.8179,0.00022428,0.00030942,0.0,0 STARLINK-3141,1 49459U 21104BD  21362.50001157  .00030942  00000-0  22428-3 0  9991,2 49459  53.2164 270.4448 0002192  30.0949 235.8179 15.73176780  8358,6727.9609999999975,91.535,351.301,348.352,0.0
49459.0,STARLINK-3141,PAYLOAD,2021-12-28 14:00:01,15.73158434,0.0002101,53.2163,270.032,30.7803,347.3664,0.00060005,0.00084295,0.0,0 STARLINK-3141,1 49459U 21104BD  21362.58334491  .00084295  00000-0  60005-3 0  9992,2 49459  53.2163 270.0320 0002101  30.7803 347.3664 15.73158434  3717,6728.014,91.536,351.292,348.465,0.0
49459.0,STARLINK-3141,PAYLOAD,2021-12-28 22:00:00,15.73264263,0.0002159,53.2166,268.3835,29.6808,77.3841,-0.00043829,-0.00061858,0.0,0 STARLINK-3141,1 49459U 21104BD  21362.91667824 -.00061858  00000-0 -43829-3 0  9995,2 49459  53.2166 268.3835 0002159  29.6808  77.3841 15.73264263  3687,6727.712,91.529,351.029,348.124,0.0
49459.0,STARLINK-3141,PAYLOAD,2021-12-29 14:00:01,15.73230049,0.0001974,53.2169,265.0834,23.5615,261.4852,-0.00014496,-0.00020942,0.0,0 STARLINK-3141,1 49459U 21104BD  21363.58335648 -.00020942  00000-0 -14496-3 0  9992,2 49459  53.2169 265.0834 0001974  23.5615 261.4852 15.73230049  3713,6727.81,91.531,351.00300000000016,348.346,0.0
49459.0,STARLINK-3141,PAYLOAD,2021-12-29 20:00:01,15.73232992,0.0002024,53.217,263.8468,25.0845,236.6722,-0.00067203,-0.0009402999999999,0.0,0 STARLINK-3141,1 49459U 21104BD  21363.83335648 -.00094030  00000-0 -67203-3 0  9993,2 49459  53.2170 263.8468 0002024  25.0845 236.6722 15.73232992  8560,6727.801,91.531,351.028,348.30400000000014,0.0
49459.0,STARLINK-3141,PAYLOAD,2021-12-29 21:56:30,15.732208800000002,0.0002071,53.2173,263.4461,30.3894,329.7246,3.3913e-05,4.145e-05,0.0,0 STARLINK-3141,1 49459U 21104BD  21363.91423982  .00004145  00000-0  33913-4 0  9999,2 49459  53.2173 263.4461 0002071  30.3894 329.7246 15.73220880  7508,6727.8359999999975,91.532,351.094,348.307,0.0
49459.0,STARLINK-3141,PAYLOAD,2021-12-30 02:30:57,15.73203169,0.0002448,53.2172,262.5022,27.9248,332.1903,-6.229e-06,-1.496e-05,0.0,0 STARLINK-3141,1 49459U 21104BD  21364.10482954 -.00001496  00000-0 -62290-5 0  9994,2 49459  53.2172 262.5022 0002448  27.9248 332.1903 15.73203169  8604,6727.886,91.533,351.398,348.10400000000016,0.0
49459.0,STARLINK-3141,PAYLOAD,2021-12-30 14:00:01,15.73139962,0.0002001,53.2162,260.1351,29.3736,162.3386,0.00056887,0.00079775,0.0,0 STARLINK-3141,1 49459U 21104BD  21364.58334491  .00079775  00000-0  56887-3 0  9994,2 49459  53.2162 260.1351 0002001  29.3736 162.3386 15.73139962  3685,6728.066,91.537,351.278,348.585,0.0
49459.0,STARLINK-3141,PAYLOAD,2021-12-30 19:17:15,15.73189742,0.0002516,53.217,259.0445,21.0375,339.0748,-2.5274e-05,-4.166e-05,0.0,0 STARLINK-3141,1 49459U 21104BD  21364.80364712 -.00004166  00000-0 -25274-4 0  9999,2 49459  53.2170 259.0445 0002516  21.0375 339.0748 15.73189742  8719,6727.924,91.534,351.482,348.097,0.0
49459.0,STARLINK-3141,PAYLOAD,2021-12-30 22:20:12,15.7319909,0.0002267,53.2171,258.4159,28.8002,331.3143,6.909299999999997e-06,3.48e-06,0.0,0 STARLINK-3141,1 49459U 21104BD  21364.93070159  .00000348  00000-0  69093-5 0  9996,2 49459  53.2171 258.4159 0002267  28.8002 331.3143 15.73199090  7664,6727.898,91.533,351.288,348.23800000000006,0.0
49459.0,STARLINK-3141,PAYLOAD,2021-12-31 14:00:01,15.73214145,0.0001949,53.2167,255.1869,25.8264,72.6973,-7.2612e-05,-0.00010805,0.0,0 STARLINK-3141,1 49459U 21104BD  21365.58334491 -.00010805  00000-0 -72612-4 0  9991,2 49459  53.2167 255.1869 0001949  25.8264  72.6973 15.73214145  3698,6727.855,91.532,351.031,348.409,0.0
